
AISTECHSAT 2
1 43768U 18099L   26170.06983678  .00004432  00000+0  23770-3 0  9992
2 43768  97.4288 218.0628 0003084 300.7768  59.3161 15.15464917412567

ASTROCAST 0.1
1 43798U 18099AS  26170.19864016  .00031937  00000+0  57680-3 0  9990
2 43798  97.4364 248.7591 0005259 197.7142 162.3927 15.49653620414745

CENTAURI-1
1 43809U 18099BD  26170.11973259  .00004007  00000+0  20942-3 0  9994
2 43809  97.4216 221.7980 0012901 326.7031  33.3389 15.16381561412798

COSMOS 2531 (RODNIK-S *)
1 43752U 18097B   26170.25040188  .00000015  00000+0  35342-4 0  9996
2 43752  82.5178 222.0596 0017651  54.1259 306.1457 12.42912824342567

COSMOS 2532 (RODNIK-S *)
1 43753U 18097C   26170.27868183 -.00000008  00000+0 -13193-3 0  9995
2 43753  82.5121 220.8271 0019066  55.8643 304.4242 12.42909844342537

D-STAR ONE (SPARROW)
1 43881U 18111F   26170.10105210  .00139355  00000+0  92966-3 0  9992
2 43881  97.6110 111.1226 0004517 115.5092 244.6639 15.74936127411672

EAGLET-I
1 43790U 18099AJ  26170.10310161  .00003016  00000+0  17452-3 0  9990
2 43790  97.4228 219.7211 0010478 347.4140  12.6828 15.12950731412629

EGYPTSAT-A (MISRSAT-A)
1 44047U 19008A   26170.31800922  .00000113  00000+0  25646-4 0  9999
2 44047  98.0188 235.0503 0001348  99.7493 260.3867 14.72309124393550

EMISAT
1 44078U 19018A   26170.29286263  .00000131  00000+0  51502-4 0  9997
2 44078  98.4641 229.0823 0017845 207.9667 152.0566 14.43688009380363

ESEO
1 43792U 18099AL  26170.04288844  .00001516  00000+0  11304-3 0  9990
2 43792  97.3976 207.3515 0011099 333.8048  26.2616 15.04254340412086

FOX-1CLIFF (AO-95)
1 43770U 18099N   26170.10947646  .00009076  00000+0  34759-3 0  9993
2 43770  97.4376 230.3486 0007763 350.5763   9.5328 15.26744431413515

GLOBAL-2
1 43812U 18099BG  26170.06459580  .00002434  00000+0  15908-3 0  9996
2 43812  97.3549 206.5001 0007027 137.6385 222.5388 15.08679131412198

ISAT
1 43879U 18111D   26170.07989264  .00081552  00000+0  80748-3 0  9994
2 43879  97.5878 105.4471 0001399 153.0896 207.0436 15.65579569411469

ITASAT
1 43786U 18099AE  26170.12957279  .00004944  00000+0  23858-3 0  9992
2 43786  97.4024 221.6025 0011894 353.4838   6.6240 15.19077032413204

JILIN-1 09
1 43943U 19005B   26170.28590690  .00003793  00000+0  17658-3 0  9994
2 43943  97.4741 265.2306 0003776  90.3415 269.8253 15.20530024409466

JILIN-1 10
1 43946U 19005E   26170.29087037  .00004708  00000+0  18737-3 0  9990
2 43946  97.4787 269.0951 0006562 269.8822  90.1664 15.25741021409634

JY1SAT (JO-97)
1 43803U 18099AX  26170.11834528  .00014216  00000+0  43822-3 0  9998
2 43803  97.4126 232.9593 0004468 253.2846 106.7906 15.33703718413920

MINXSS-2
1 43758U 18099A   26169.96767252  .00029386  00000+0  58220-3 0  9999
2 43758  97.4526 246.3046 0006729 247.4565 112.5973 15.46995140414409

RANGE-A
1 43773U 18099R   26170.16157224  .00003366  00000+0  19192-3 0  9997
2 43773  97.3960 212.6830 0009634 350.0964  10.0076 15.13402960412799

SAUDISAT 5A
1 43831U 18102A   26170.32582558  .00004534  00000+0  16806-3 0  9994
2 43831  97.3063 231.8657 0011140 122.5266 237.7052 15.28066671416001

SAUDISAT 5B
1 43833U 18102C   26170.34431113  .00004315  00000+0  15880-3 0  9996
2 43833  97.3173 234.9574 0011811 124.6455 235.5900 15.28322543416129

SEAHAWK-1
1 43820U 18099BQ  26170.10757790  .00006798  00000+0  29331-3 0  9996
2 43820  97.3950 222.5638 0006642 307.1932  52.8698 15.22832636412826

SIRION PATHFINDER-2
1 43759U 18099B   26170.09772729  .00003888  00000+0  21425-3 0  9997
2 43759  97.4247 219.1098 0007166 296.6834  63.3664 15.14561480412911

SNUGLITE
1 43784U 18099AC  26170.10932955  .00009325  00000+0  35226-3 0  9992
2 43784  97.3860 224.3705 0001184 273.7878  86.3226 15.27212758413612

SNUSAT-2
1 43782U 18099AA  26170.10860050  .00006386  00000+0  28361-3 0  9992
2 43782  97.4055 223.4630 0008556 290.4235  69.6082 15.21860979413327

SUOMI-100
1 43804U 18099AY  26170.10484891  .00009746  00000+0  35418-3 0  9996
2 43804  97.4179 230.4911 0008371 270.6321  89.3959 15.28450816413717

THEA
1 43796U 18099AQ  26170.15773190  .00014049  00000+0  41477-3 0  9998
2 43796  97.4436 239.8689 0005911 273.4514  86.6053 15.35067493412997

UWE-4
1 43880U 18111E   26169.76835927  .00027476  00000+0  55973-3 0  9993
2 43880  97.5851  98.2321 0005260 335.4333  24.6665 15.46206755411020
