OBJECT_NAME,OBJECT_ID,EPOCH,MEAN_MOTION,ECCENTRICITY,INCLINATION,RA_OF_ASC_NODE,ARG_OF_PERICENTER,MEAN_ANOMALY,EPHEMERIS_TYPE,CLASSIFICATION_TYPE,NORAD_CAT_ID,ELEMENT_SET_NO,REV_AT_EPOCH,BSTAR,MEAN_MOTION_DOT,MEAN_MOTION_DDOT
COSMOS 2531 (RODNIK-S 17),2018-097B,2026-06-19T06:00:34.722432,12.42912824,.00176513,82.5178,222.0596,54.1259,306.1457,0,U,43752,999,34256,.35342435E-4,.15E-6,0
COSMOS 2532 (RODNIK-S 18),2018-097C,2026-06-19T06:41:18.110112,12.42909844,.00190667,82.5121,220.8271,55.8643,304.4242,0,U,43753,999,34253,-.131935E-3,-.8E-7,0
MINXSS-2,2018-099A,2026-06-18T23:13:26.905728,15.46995140,.00067298,97.4526,246.3046,247.4565,112.5973,0,U,43758,999,41440,.58219728E-3,.29386E-3,0
SIRION PATHFINDER-2,2018-099B,2026-06-19T02:20:43.637856,15.14561480,.00071663,97.4247,219.1098,296.6834,63.3664,0,U,43759,999,41291,.2142483E-3,.3888E-4,0
AISTECHSAT 2,2018-099L,2026-06-19T01:40:33.897792,15.15464917,.00030846,97.4288,218.0628,300.7768,59.3161,0,U,43768,999,41256,.23770184E-3,.4432E-4,0
FOX-1CLIFF (AO-95),2018-099N,2026-06-19T02:37:38.766144,15.26744431,.00077637,97.4376,230.3486,350.5763,9.5328,0,U,43770,999,41351,.34759477E-3,.9076E-4,0
RANGE-A,2018-099R,2026-06-19T03:52:39.841536,15.13402960,.0009634,97.3960,212.6830,350.0964,10.0076,0,U,43773,999,41279,.19192483E-3,.3366E-4,0
SNUSAT-2,2018-099AA,2026-06-19T02:36:23.083200,15.21860979,.00085565,97.4055,223.4630,290.4235,69.6082,0,U,43782,999,41332,.28361379E-3,.6386E-4,0
SNUGLITE,2018-099AC,2026-06-19T02:37:26.073120,15.27212758,.00011847,97.3860,224.3705,273.7878,86.3226,0,U,43784,999,41361,.35226178E-3,.9325E-4,0
ITASAT,2018-099AE,2026-06-19T03:06:35.089056,15.19077032,.00118943,97.4024,221.6025,353.4838,6.6240,0,U,43786,999,41320,.23858407E-3,.4944E-4,0
EAGLET-I,2018-099AJ,2026-06-19T02:28:27.979104,15.12950731,.00104785,97.4228,219.7211,347.4140,12.6828,0,U,43790,999,41262,.17451749E-3,.3016E-4,0
ESEO,2018-099AL,2026-06-19T01:01:45.561216,15.04254340,.00110999,97.3976,207.3515,333.8048,26.2616,0,U,43792,999,41208,.11303514E-3,.1516E-4,0
THEA,2018-099AQ,2026-06-19T03:47:08.036160,15.35067493,.0005911,97.4436,239.8689,273.4514,86.6053,0,U,43796,999,41299,.41476996E-3,.14049E-3,0
ASTROCAST 0.1,2018-099AS,2026-06-19T04:46:02.509824,15.49653620,.00052598,97.4364,248.7591,197.7142,162.3927,0,U,43798,999,41474,.57680226E-3,.31937E-3,0
JY1SAT (JO-97),2018-099AX,2026-06-19T02:50:25.032192,15.33703718,.00044685,97.4126,232.9593,253.2846,106.7906,0,U,43803,999,41392,.4382212E-3,.14216E-3,0
SUOMI-100,2018-099AY,2026-06-19T02:30:58.945824,15.28450816,.00083716,97.4179,230.4911,270.6321,89.3959,0,U,43804,999,41371,.35417624E-3,.9746E-4,0
CENTAURI-1,2018-099BD,2026-06-19T02:52:24.895776,15.16381561,.00129014,97.4216,221.7980,326.7031,33.3389,0,U,43809,999,41279,.20941535E-3,.4007E-4,0
GLOBAL-2,2018-099BG,2026-06-19T01:33:01.077120,15.08679131,.00070273,97.3549,206.5001,137.6385,222.5388,0,U,43812,999,41219,.15908149E-3,.2434E-4,0
SEAHAWK-1,2018-099BQ,2026-06-19T02:34:54.730560,15.22832636,.00066427,97.3950,222.5638,307.1932,52.8698,0,U,43820,999,41282,.29330853E-3,.6798E-4,0
SAUDISAT 5A,2018-102A,2026-06-19T07:49:11.330112,15.28066671,.00111401,97.3063,231.8657,122.5266,237.7052,0,U,43831,999,41600,.16805913E-3,.4534E-4,0
SAUDISAT 5B,2018-102C,2026-06-19T08:15:48.481632,15.28322543,.00118117,97.3173,234.9574,124.6455,235.5900,0,U,43833,999,41612,.15880434E-3,.4315E-4,0
ISAT,2018-111D,2026-06-19T01:55:02.724096,15.65579569,.00013997,97.5878,105.4471,153.0896,207.0436,0,U,43879,999,41146,.80747629E-3,.81552E-3,0
UWE-4,2018-111E,2026-06-18T18:26:26.240928,15.46206755,.00052601,97.5851,98.2321,335.4333,24.6665,0,U,43880,999,41102,.55973132E-3,.27476E-3,0
D-STAR ONE (SPARROW),2018-111F,2026-06-19T02:25:30.901440,15.74936127,.00045177,97.6110,111.1226,115.5092,244.6639,0,U,43881,999,41167,.92965853E-3,.139355E-2,0
JILIN-1 09,2019-005B,2026-06-19T06:51:42.356160,15.20530024,.0003776,97.4741,265.2306,90.3415,269.8253,0,U,43943,999,40946,.17658107E-3,.3793E-4,0
JILIN-1 10,2019-005E,2026-06-19T06:58:51.199968,15.25741021,.00065629,97.4787,269.0951,269.8822,90.1664,0,U,43946,999,40963,.18737107E-3,.4708E-4,0
EGYPTSAT-A (MISRSAT-A),2019-008A,2026-06-19T07:37:55.996608,14.72309124,.00013488,98.0188,235.0503,99.7493,260.3867,0,U,44047,999,39355,.25646394E-4,.113E-5,0
EMISAT,2019-018A,2026-06-19T07:01:43.331232,14.43688009,.00178458,98.4641,229.0823,207.9667,152.0566,0,U,44078,999,38036,.515023E-4,.131E-5,0
